[{"OBJECT_NAME":"STARLINK-32924","OBJECT_ID":"2025-037R","EPOCH":"2026-03-09T22:45:33.798240","MEAN_MOTION":14.98337023,"ECCENTRICITY":0.00028121,"INCLINATION":70.0035,"RA_OF_ASC_NODE":353.6927,"ARG_OF_PERICENTER":257.7361,"MEAN_ANOMALY":102.3483,"EPHEMERIS_TYPE":0,"CLASSIFICATION_TYPE":"U","NORAD_CAT_ID":63092,"ELEMENT_SET_NO":999,"REV_AT_EPOCH":5864,"BSTAR":0.0006750261,"MEAN_MOTION_DOT":7.972e-5,"MEAN_MOTION_DDOT":0},{"OBJECT_NAME":"FENGYUN 1C DEB","OBJECT_ID":"1999-025BKG","EPOCH":"2026-03-07T13:45:43.096608","MEAN_MOTION":14.85582818,"ECCENTRICITY":0.0064954,"INCLINATION":96.5618,"RA_OF_ASC_NODE":101.964,"ARG_OF_PERICENTER":251.088,"MEAN_ANOMALY":261.3714,"EPHEMERIS_TYPE":0,"CLASSIFICATION_TYPE":"U","NORAD_CAT_ID":31202,"ELEMENT_SET_NO":999,"REV_AT_EPOCH":335,"BSTAR":0.0013766,"MEAN_MOTION_DOT":0.00012341,"MEAN_MOTION_DDOT":0}]
